H-2A R/B                
1 28932U 06002B   26066.29961581  .00014807  00000+0  74044-3 0  9994
2 28932  98.2406 213.1175 0051991 249.2814 110.2840 15.16356394 94079
RESURS-DK 1             
1 29228U 06021A   26066.22111719  .00004367  00000+0  25471-3 0  9997
2 29228  69.9311 243.4088 0002120 163.2657 196.8580 15.12723189 87155
CZ-4B R/B               
1 29507U 06046C   26066.10249541  .00004944  00000+0  25153-3 0  9994
2 29507  97.5594 111.0178 0031651 276.7665  82.9966 15.16870457 59657
CZ-2C R/B               
1 31114U 07010B   26066.33058498  .00000197  00000+0  11002-3 0  9991
2 31114  98.3977 179.7276 0057957 301.6002  57.9527 14.20245315979387
COSMO-SKYMED 1          
1 31598U 07023A   26066.32427428  .00004364  00000+0  38917-3 0  9997
2 31598  97.8866 257.3373 0001006 100.3695 259.7640 14.96511077 14552
COSMOS 2428             
1 31792U 07029A   26066.34007475  .00000081  00000+0  69171-4 0  9996
2 31792  70.9428 208.2744 0009001 279.3607  80.6496 14.12945622963765
SL-16 R/B               
1 31793U 07029B   26066.29513941 -.00000035  00000+0  69039-5 0  9995
2 31793  70.9758 177.4178 0002339 276.6793 113.2911 14.14833313965035
KORONAS-FOTON           
1 33504U 09003A   26066.30042863  .00015689  00000+0  35125-3 0  9990
2 33504  82.4274 278.3624 0011106 157.7829 202.3902 15.43255496945374
CZ-2C R/B               
1 37731U 11030B   26066.32723749  .00002699  00000+0  34534-3 0  9990
2 37731  97.8548  23.6377 0052645 359.7566 126.0044 14.81212460789746
H-2A R/B                
1 38341U 12025E   26066.18551808  .00005281  00000+0  47843-3 0  9999
2 38341  98.4735  33.0310 0043495 322.8445  36.9764 14.95140776747849
SHIJIAN-16 (SJ-16)      
1 39358U 13057A   26066.34970524  .00006076  00000+0  59528-3 0  9998
2 39358  74.9733 189.5170 0015569 118.6526 241.6231 14.92336154671156
SL-4 R/B                
1 39679U 14021B   26066.16164549  .00016718  00000+0  36867-3 0  9993
2 39679  51.6088 349.6101 0097798  93.7843 267.4330 15.39078300655885
