CCSDS_OMM_VERS = 2.0
CREATION_DATE  = 
ORIGINATOR     = 

OBJECT_NAME    = H-2A R/B
OBJECT_ID      = 2006-002B
CENTER_NAME    = EARTH
REF_FRAME      = TEME
TIME_SYSTEM    = UTC
MEAN_ELEMENT_THEORY = SGP/SGP4

EPOCH          = 2026-03-07T07:11:26.805984
MEAN_MOTION    = 15.16356394
ECCENTRICITY   = .00519911
INCLINATION    = 98.2406
RA_OF_ASC_NODE = 213.1175
ARG_OF_PERICENTER = 249.2814
MEAN_ANOMALY   = 110.2840

EPHEMERIS_TYPE = 0
CLASSIFICATION_TYPE = U
NORAD_CAT_ID   = 28932
ELEMENT_SET_NO = 999
REV_AT_EPOCH   = 9407
BSTAR          = .74043809E-3
MEAN_MOTION_DOT = .14807E-3
MEAN_MOTION_DDOT = 0

CCSDS_OMM_VERS = 2.0
CREATION_DATE  = 
ORIGINATOR     = 

OBJECT_NAME    = RESURS-DK 1
OBJECT_ID      = 2006-021A
CENTER_NAME    = EARTH
REF_FRAME      = TEME
TIME_SYSTEM    = UTC
MEAN_ELEMENT_THEORY = SGP/SGP4

EPOCH          = 2026-03-07T05:18:24.525216
MEAN_MOTION    = 15.12723189
ECCENTRICITY   = .00021201
INCLINATION    = 69.9311
RA_OF_ASC_NODE = 243.4088
ARG_OF_PERICENTER = 163.2657
MEAN_ANOMALY   = 196.8580

EPHEMERIS_TYPE = 0
CLASSIFICATION_TYPE = U
NORAD_CAT_ID   = 29228
ELEMENT_SET_NO = 999
REV_AT_EPOCH   = 8715
BSTAR          = .25471322E-3
MEAN_MOTION_DOT = .4367E-4
MEAN_MOTION_DDOT = 0

CCSDS_OMM_VERS = 2.0
CREATION_DATE  = 
ORIGINATOR     = 

OBJECT_NAME    = CZ-4B R/B
OBJECT_ID      = 2006-046C
CENTER_NAME    = EARTH
REF_FRAME      = TEME
TIME_SYSTEM    = UTC
MEAN_ELEMENT_THEORY = SGP/SGP4

EPOCH          = 2026-03-07T02:27:35.603424
MEAN_MOTION    = 15.16870457
ECCENTRICITY   = .0031651
INCLINATION    = 97.5594
RA_OF_ASC_NODE = 111.0178
ARG_OF_PERICENTER = 276.7665
MEAN_ANOMALY   = 82.9966

EPHEMERIS_TYPE = 0
CLASSIFICATION_TYPE = U
NORAD_CAT_ID   = 29507
ELEMENT_SET_NO = 999
REV_AT_EPOCH   = 5965
BSTAR          = .25152761E-3
MEAN_MOTION_DOT = .4944E-4
MEAN_MOTION_DDOT = 0

CCSDS_OMM_VERS = 2.0
CREATION_DATE  = 
ORIGINATOR     = 

OBJECT_NAME    = CZ-2C R/B
OBJECT_ID      = 2007-010B
CENTER_NAME    = EARTH
REF_FRAME      = TEME
TIME_SYSTEM    = UTC
MEAN_ELEMENT_THEORY = SGP/SGP4

EPOCH          = 2026-03-07T07:56:02.542272
MEAN_MOTION    = 14.20245315
ECCENTRICITY   = .00579572
INCLINATION    = 98.3977
RA_OF_ASC_NODE = 179.7276
ARG_OF_PERICENTER = 301.6002
MEAN_ANOMALY   = 57.9527

EPHEMERIS_TYPE = 0
CLASSIFICATION_TYPE = U
NORAD_CAT_ID   = 31114
ELEMENT_SET_NO = 999
REV_AT_EPOCH   = 97938
BSTAR          = .11002496E-3
MEAN_MOTION_DOT = .197E-5
MEAN_MOTION_DDOT = 0

CCSDS_OMM_VERS = 2.0
CREATION_DATE  = 
ORIGINATOR     = 

OBJECT_NAME    = COSMO-SKYMED 1
OBJECT_ID      = 2007-023A
CENTER_NAME    = EARTH
REF_FRAME      = TEME
TIME_SYSTEM    = UTC
MEAN_ELEMENT_THEORY = SGP/SGP4

EPOCH          = 2026-03-07T07:46:57.297792
MEAN_MOTION    = 14.96511077
ECCENTRICITY   = .00010068
INCLINATION    = 97.8866
RA_OF_ASC_NODE = 257.3373
ARG_OF_PERICENTER = 100.3695
MEAN_ANOMALY   = 259.7640

EPHEMERIS_TYPE = 0
CLASSIFICATION_TYPE = U
NORAD_CAT_ID   = 31598
ELEMENT_SET_NO = 999
REV_AT_EPOCH   = 1455
BSTAR          = .38917458E-3
MEAN_MOTION_DOT = .4364E-4
MEAN_MOTION_DDOT = 0

CCSDS_OMM_VERS = 2.0
CREATION_DATE  = 
ORIGINATOR     = 

OBJECT_NAME    = COSMOS 2428
OBJECT_ID      = 2007-029A
CENTER_NAME    = EARTH
REF_FRAME      = TEME
TIME_SYSTEM    = UTC
MEAN_ELEMENT_THEORY = SGP/SGP4

EPOCH          = 2026-03-07T08:09:42.458400
MEAN_MOTION    = 14.12945622
ECCENTRICITY   = .00090015
INCLINATION    = 70.9428
RA_OF_ASC_NODE = 208.2744
ARG_OF_PERICENTER = 279.3607
MEAN_ANOMALY   = 80.6496

EPHEMERIS_TYPE = 0
CLASSIFICATION_TYPE = U
NORAD_CAT_ID   = 31792
ELEMENT_SET_NO = 999
REV_AT_EPOCH   = 96376
BSTAR          = .69171088E-4
MEAN_MOTION_DOT = .81E-6
MEAN_MOTION_DDOT = 0

CCSDS_OMM_VERS = 2.0
CREATION_DATE  = 
ORIGINATOR     = 

OBJECT_NAME    = SL-16 R/B
OBJECT_ID      = 2007-029B
CENTER_NAME    = EARTH
REF_FRAME      = TEME
TIME_SYSTEM    = UTC
MEAN_ELEMENT_THEORY = SGP/SGP4

EPOCH          = 2026-03-07T07:05:00.045024
MEAN_MOTION    = 14.14833313
ECCENTRICITY   = .00023391
INCLINATION    = 70.9758
RA_OF_ASC_NODE = 177.4178
ARG_OF_PERICENTER = 276.6793
MEAN_ANOMALY   = 113.2911

EPHEMERIS_TYPE = 0
CLASSIFICATION_TYPE = U
NORAD_CAT_ID   = 31793
ELEMENT_SET_NO = 999
REV_AT_EPOCH   = 96503
BSTAR          = .6903937E-5
MEAN_MOTION_DOT = -.35E-6
MEAN_MOTION_DDOT = 0

CCSDS_OMM_VERS = 2.0
CREATION_DATE  = 
ORIGINATOR     = 

OBJECT_NAME    = KORONAS-FOTON
OBJECT_ID      = 2009-003A
CENTER_NAME    = EARTH
REF_FRAME      = TEME
TIME_SYSTEM    = UTC
MEAN_ELEMENT_THEORY = SGP/SGP4

EPOCH          = 2026-03-07T07:12:37.033632
MEAN_MOTION    = 15.43255496
ECCENTRICITY   = .00111063
INCLINATION    = 82.4274
RA_OF_ASC_NODE = 278.3624
ARG_OF_PERICENTER = 157.7829
MEAN_ANOMALY   = 202.3902

EPHEMERIS_TYPE = 0
CLASSIFICATION_TYPE = U
NORAD_CAT_ID   = 33504
ELEMENT_SET_NO = 999
REV_AT_EPOCH   = 94537
BSTAR          = .35125355E-3
MEAN_MOTION_DOT = .15689E-3
MEAN_MOTION_DDOT = 0

CCSDS_OMM_VERS = 2.0
CREATION_DATE  = 
ORIGINATOR     = 

OBJECT_NAME    = CZ-2C R/B
OBJECT_ID      = 2011-030B
CENTER_NAME    = EARTH
REF_FRAME      = TEME
TIME_SYSTEM    = UTC
MEAN_ELEMENT_THEORY = SGP/SGP4

EPOCH          = 2026-03-07T07:51:13.319136
MEAN_MOTION    = 14.81212460
ECCENTRICITY   = .00526459
INCLINATION    = 97.8548
RA_OF_ASC_NODE = 23.6377
ARG_OF_PERICENTER = 359.7566
MEAN_ANOMALY   = 126.0044

EPHEMERIS_TYPE = 0
CLASSIFICATION_TYPE = U
NORAD_CAT_ID   = 37731
ELEMENT_SET_NO = 999
REV_AT_EPOCH   = 78974
BSTAR          = .34534005E-3
MEAN_MOTION_DOT = .2699E-4
MEAN_MOTION_DDOT = 0

CCSDS_OMM_VERS = 2.0
CREATION_DATE  = 
ORIGINATOR     = 

OBJECT_NAME    = H-2A R/B
OBJECT_ID      = 2012-025E
CENTER_NAME    = EARTH
REF_FRAME      = TEME
TIME_SYSTEM    = UTC
MEAN_ELEMENT_THEORY = SGP/SGP4

EPOCH          = 2026-03-07T04:27:08.762112
MEAN_MOTION    = 14.95140776
ECCENTRICITY   = .00434957
INCLINATION    = 98.4735
RA_OF_ASC_NODE = 33.0310
ARG_OF_PERICENTER = 322.8445
MEAN_ANOMALY   = 36.9764

EPHEMERIS_TYPE = 0
CLASSIFICATION_TYPE = U
NORAD_CAT_ID   = 38341
ELEMENT_SET_NO = 999
REV_AT_EPOCH   = 74784
BSTAR          = .47842759E-3
MEAN_MOTION_DOT = .5281E-4
MEAN_MOTION_DDOT = 0

CCSDS_OMM_VERS = 2.0
CREATION_DATE  = 
ORIGINATOR     = 

OBJECT_NAME    = SHIJIAN-16 (SJ-16)
OBJECT_ID      = 2013-057A
CENTER_NAME    = EARTH
REF_FRAME      = TEME
TIME_SYSTEM    = UTC
MEAN_ELEMENT_THEORY = SGP/SGP4

EPOCH          = 2026-03-07T08:23:34.532736
MEAN_MOTION    = 14.92336154
ECCENTRICITY   = .00155698
INCLINATION    = 74.9733
RA_OF_ASC_NODE = 189.5170
ARG_OF_PERICENTER = 118.6526
MEAN_ANOMALY   = 241.6231

EPHEMERIS_TYPE = 0
CLASSIFICATION_TYPE = U
NORAD_CAT_ID   = 39358
ELEMENT_SET_NO = 999
REV_AT_EPOCH   = 67115
BSTAR          = .5952794E-3
MEAN_MOTION_DOT = .6076E-4
MEAN_MOTION_DDOT = 0

CCSDS_OMM_VERS = 2.0
CREATION_DATE  = 
ORIGINATOR     = 

OBJECT_NAME    = SL-4 R/B
OBJECT_ID      = 2014-021B
CENTER_NAME    = EARTH
REF_FRAME      = TEME
TIME_SYSTEM    = UTC
MEAN_ELEMENT_THEORY = SGP/SGP4

EPOCH          = 2026-03-07T03:52:46.170336
MEAN_MOTION    = 15.39078300
ECCENTRICITY   = .00977987
INCLINATION    = 51.6088
RA_OF_ASC_NODE = 349.6101
ARG_OF_PERICENTER = 93.7843
MEAN_ANOMALY   = 267.4330

EPHEMERIS_TYPE = 0
CLASSIFICATION_TYPE = U
NORAD_CAT_ID   = 39679
ELEMENT_SET_NO = 999
REV_AT_EPOCH   = 65588
BSTAR          = .36867286E-3
MEAN_MOTION_DOT = .16718E-3
MEAN_MOTION_DDOT = 0

